CTC2_L_00057001-01
1 18726U 23878ZG  26037.47790509  .00000000  00000+0  00000-0 0  9990
2 18726 100.0000   0.0000 0000000   0.0000   0.0000 15.48880291    14
CTC2_L_00057001-02
1 18727U 23012JM  26037.47790509  .00000000  00000+0  00000-0 0  9991
2 18727 100.0000   0.0000 0000000   0.0000  90.0000 15.48880291    14
CTC2_L_00057001-03
1 18728U 22323BL  26037.47790509  .00000000  00000+0  00000-0 0  9996
2 18728 100.0000   0.0000 0000000   0.0000 180.0000 15.48880291    15
CTC2_L_00057001-04
1 18729U 22106IE  26037.47790509  .00000000  00000+0  00000-0 0  9996
2 18729 100.0000   0.0000 0000000   0.0000 270.0000 15.48880291    16
CTC2_L_00057002-01
1 18730U 23499DE  26037.47790509  .00000000  00000+0  00000-0 0  9994
2 18730 100.0000  12.0000 0000000   0.0000  12.0000 15.48880291    15
CTC2_L_00057002-02
1 18731U 26756OP  26037.47790509  .00000000  00000+0  00000-0 0  9994
2 18731 100.0000  12.0000 0000000   0.0000 102.0000 15.48880291    16
CTC2_L_00057002-03
1 18732U 25047VJ  26037.47790509  .00000000  00000+0  00000-0 0  9997
2 18732 100.0000  12.0000 0000000   0.0000 192.0000 15.48880291    16
CTC2_L_00057002-04
1 18733U 25788DE  26037.47790509  .00000000  00000+0  00000-0 0  9990
2 18733 100.0000  12.0000 0000000   0.0000 282.0000 15.48880291    17
CTC2_L_00057003-01
1 18734U 26707ZB  26037.47790509  .00000000  00000+0  00000-0 0  9993
2 18734 100.0000  24.0000 0000000   0.0000  24.0000 15.48880291    15
CTC2_L_00057003-02
1 18735U 24878VG  26037.47790509  .00000000  00000+0  00000-0 0  9991
2 18735 100.0000  24.0000 0000000   0.0000 114.0000 15.48880291    16
CTC2_L_00057003-03
1 18736U 26642QQ  26037.47790509  .00000000  00000+0  00000-0 0  9993
2 18736 100.0000  24.0000 0000000   0.0000 204.0000 15.48880291    17
CTC2_L_00057003-04
1 18737U 25426RW  26037.47790509  .00000000  00000+0  00000-0 0  9993
2 18737 100.0000  24.0000 0000000   0.0000 294.0000 15.48880291    17
CTC2_L_00057004-01
1 18738U 24781NE  26037.47790509  .00000000  00000+0  00000-0 0  9997
2 18738 100.0000  36.0000 0000000   0.0000  36.0000 15.48880291    15
CTC2_L_00057004-02
1 18739U 24519LX  26037.47790509  .00000000  00000+0  00000-0 0  9997
2 18739 100.0000  36.0000 0000000   0.0000 126.0000 15.48880291    16
CTC2_L_00057004-03
1 18740U 26864BV  26037.47790509  .00000000  00000+0  00000-0 0  9994
2 18740 100.0000  36.0000 0000000   0.0000 216.0000 15.48880291    18
CTC2_L_00057004-04
1 18741U 26763QM  26037.47790509  .00000000  00000+0  00000-0 0  9993
2 18741 100.0000  36.0000 0000000   0.0000 306.0000 15.48880291    19
CTC2_L_00057005-01
1 18742U 23596MU  26037.47790509  .00000000  00000+0  00000-0 0  9995
2 18742 100.0000  48.0000 0000000   0.0000  48.0000 15.48880291    16
CTC2_L_00057005-02
1 18743U 25686UI  26037.47790509  .00000000  00000+0  00000-0 0  9998
2 18743 100.0000  48.0000 0000000   0.0000 138.0000 15.48880291    17
CTC2_L_00057005-03
1 18744U 26698V   26037.47790509  .00000000  00000+0  00000-0 0  9993
2 18744 100.0000  48.0000 0000000   0.0000 228.0000 15.48880291    18
CTC2_L_00057005-04
1 18745U 26914EC  26037.47790509  .00000000  00000+0  00000-0 0  9995
2 18745 100.0000  48.0000 0000000   0.0000 318.0000 15.48880291    19
CTC2_L_00057006-01
1 18746U 22381EI  26037.47790509  .00000000  00000+0  00000-0 0  9990
2 18746 100.0000  60.0000 0000000   0.0000  60.0000 15.48880291    18
CTC2_L_00057006-02
1 18747U 25551QC  26037.47790509  .00000000  00000+0  00000-0 0  9993
2 18747 100.0000  60.0000 0000000   0.0000 150.0000 15.48880291    19
CTC2_L_00057006-03
1 18748U 24388EE  26037.47790509  .00000000  00000+0  00000-0 0  9991
2 18748 100.0000  60.0000 0000000   0.0000 240.0000 15.48880291    10
CTC2_L_00057006-04
1 18749U 23240YD  26037.47790509  .00000000  00000+0  00000-0 0  9998
2 18749 100.0000  60.0000 0000000   0.0000 330.0000 15.48880291    11
CTC2_L_00057007-01
1 18750U 24601ZP  26037.47790509  .00000000  00000+0  00000-0 0  9992
2 18750 100.0000  72.0000 0000000   0.0000  72.0000 15.48880291    19
CTC2_L_00057007-02
1 18751U 25078JL  26037.47790509  .00000000  00000+0  00000-0 0  9992
2 18751 100.0000  72.0000 0000000   0.0000 162.0000 15.48880291    10
CTC2_L_00057007-03
1 18752U 22692AO  26037.47790509  .00000000  00000+0  00000-0 0  9992
2 18752 100.0000  72.0000 0000000   0.0000 252.0000 15.48880291    11
CTC2_L_00057007-04
1 18753U 22303PF  26037.47790509  .00000000  00000+0  00000-0 0  9992
2 18753 100.0000  72.0000 0000000   0.0000 342.0000 15.48880291    12
CTC2_L_00057008-01
1 18754U 22488ZV  26037.47790509  .00000000  00000+0  00000-0 0  9997
2 18754 100.0000  84.0000 0000000   0.0000  84.0000 15.48880291    19
CTC2_L_00057008-02
1 18755U 26121VA  26037.47790509  .00000000  00000+0  00000-0 0  9996
2 18755 100.0000  84.0000 0000000   0.0000 174.0000 15.48880291    10
CTC2_L_00057008-03
1 18756U 22566NM  26037.47790509  .00000000  00000+0  00000-0 0  9996
2 18756 100.0000  84.0000 0000000   0.0000 264.0000 15.48880291    11
CTC2_L_00057008-04
1 18757U 23752QE  26037.47790509  .00000000  00000+0  00000-0 0  9995
2 18757 100.0000  84.0000 0000000   0.0000 354.0000 15.48880291    12
CTC2_L_00057009-01
1 18758U 24389MD  26037.47790509  .00000000  00000+0  00000-0 0  9993
2 18758 100.0000  96.0000 0000000   0.0000  96.0000 15.48880291    19
CTC2_L_00057009-02
1 18759U 25951ZS  26037.47790509  .00000000  00000+0  00000-0 0  9990
2 18759 100.0000  96.0000 0000000   0.0000 186.0000 15.48880291    10
CTC2_L_00057009-03
1 18760U 24644OW  26037.47790509  .00000000  00000+0  00000-0 0  9990
2 18760 100.0000  96.0000 0000000   0.0000 276.0000 15.48880291    12
CTC2_L_00057009-04
1 18761U 25832KU  26037.47790509  .00000000  00000+0  00000-0 0  9991
2 18761 100.0000  96.0000 0000000   0.0000   6.0000 15.48880291    14
CTC2_L_00057010-01
1 18762U 24945ZA  26037.47790509  .00000000  00000+0  00000-0 0  9996
2 18762 100.0000 108.0000 0000000   0.0000 108.0000 15.48880291    12
CTC2_L_00057010-02
1 18763U 26702WF  26037.47790509  .00000000  00000+0  00000-0 0  9990
2 18763 100.0000 108.0000 0000000   0.0000 198.0000 15.48880291    12
CTC2_L_00057010-03
1 18764U 23900HN  26037.47790509  .00000000  00000+0  00000-0 0  9998
2 18764 100.0000 108.0000 0000000   0.0000 288.0000 15.48880291    13
CTC2_L_00057010-04
1 18765U 24480FW  26037.47790509  .00000000  00000+0  00000-0 0  9993
2 18765 100.0000 108.0000 0000000   0.0000  18.0000 15.48880291    15
CTC2_L_00057011-01
1 18766U 25397RI  26037.47790509  .00000000  00000+0  00000-0 0  9992
2 18766 100.0000 120.0000 0000000   0.0000 120.0000 15.48880291    14
CTC2_L_00057011-02
1 18767U 22635RO  26037.47790509  .00000000  00000+0  00000-0 0  9995
2 18767 100.0000 120.0000 0000000   0.0000 210.0000 15.48880291    15
CTC2_L_00057011-03
1 18768U 22115ZX  26037.47790509  .00000000  00000+0  00000-0 0  9999
2 18768 100.0000 120.0000 0000000   0.0000 300.0000 15.48880291    16
CTC2_L_00057011-04
1 18769U 26686RH  26037.47790509  .00000000  00000+0  00000-0 0  9997
2 18769 100.0000 120.0000 0000000   0.0000  30.0000 15.48880291    17
CTC2_L_00057012-01
1 18770U 26984BS  26037.47790509  .00000000  00000+0  00000-0 0  9990
2 18770 100.0000 132.0000 0000000   0.0000 132.0000 15.48880291    15
CTC2_L_00057012-02
1 18771U 22100UG  26037.47790509  .00000000  00000+0  00000-0 0  9997
2 18771 100.0000 132.0000 0000000   0.0000 222.0000 15.48880291    16
CTC2_L_00057012-03
1 18772U 22340JL  26037.47790509  .00000000  00000+0  00000-0 0  9994
2 18772 100.0000 132.0000 0000000   0.0000 312.0000 15.48880291    17
CTC2_L_00057012-04
1 18773U 23605HC  26037.47790509  .00000000  00000+0  00000-0 0  9990
2 18773 100.0000 132.0000 0000000   0.0000  42.0000 15.48880291    18
CTC2_L_00057013-01
1 18774U 26928BK  26037.47790509  .00000000  00000+0  00000-0 0  9992
2 18774 100.0000 144.0000 0000000   0.0000 144.0000 15.48880291    15
CTC2_L_00057013-02
1 18775U 26209TC  26037.47790509  .00000000  00000+0  00000-0 0  9995
2 18775 100.0000 144.0000 0000000   0.0000 234.0000 15.48880291    16
CTC2_L_00057013-03
1 18776U 25659FH  26037.47790509  .00000000  00000+0  00000-0 0  9994
2 18776 100.0000 144.0000 0000000   0.0000 324.0000 15.48880291    17
CTC2_L_00057013-04
1 18777U 22270YS  26037.47790509  .00000000  00000+0  00000-0 0  9991
2 18777 100.0000 144.0000 0000000   0.0000  54.0000 15.48880291    18
CTC2_L_00057014-01
1 18778U 23177JS  26037.47790509  .00000000  00000+0  00000-0 0  9999
2 18778 100.0000 156.0000 0000000   0.0000 156.0000 15.48880291    15
CTC2_L_00057014-02
1 18779U 26046QS  26037.47790509  .00000000  00000+0  00000-0 0  9998
2 18779 100.0000 156.0000 0000000   0.0000 246.0000 15.48880291    16
CTC2_L_00057014-03
1 18780U 22588IK  26037.47790509  .00000000  00000+0  00000-0 0  9997
2 18780 100.0000 156.0000 0000000   0.0000 336.0000 15.48880291    18
CTC2_L_00057014-04
1 18781U 22714SD  26037.47790509  .00000000  00000+0  00000-0 0  9999
2 18781 100.0000 156.0000 0000000   0.0000  66.0000 15.48880291    19
CTC2_L_00057015-01
1 18782U 22031DD  26037.47790509  .00000000  00000+0  00000-0 0  9992
2 18782 100.0000 168.0000 0000000   0.0000 168.0000 15.48880291    16
CTC2_L_00057015-02
1 18783U 25157LP  26037.47790509  .00000000  00000+0  00000-0 0  9995
2 18783 100.0000 168.0000 0000000   0.0000 258.0000 15.48880291    17
CTC2_L_00057015-03
1 18784U 26067XB  26037.47790509  .00000000  00000+0  00000-0 0  9997
2 18784 100.0000 168.0000 0000000   0.0000 348.0000 15.48880291    18
CTC2_L_00057015-04
1 18785U 22549PJ  26037.47790509  .00000000  00000+0  00000-0 0  9999
2 18785 100.0000 168.0000 0000000   0.0000  78.0000 15.48880291    19
CTC2_L_00057016-01
1 18786U 24338JL  26037.47790509  .00000000  00000+0  00000-0 0  9998
2 18786 100.0000 180.0000 0000000   0.0000 180.0000 15.48880291    18
CTC2_L_00057016-02
1 18787U 24007SL  26037.47790509  .00000000  00000+0  00000-0 0  9992
2 18787 100.0000 180.0000 0000000   0.0000 270.0000 15.48880291    19
